     3.01           N: GNSS NAV DATA    S: SBAS             RINEX VERSION / TYPE
gLAB                gAGE / UPC          20100317 121400 UTC PGM / RUN BY / DATE 
EXAMPLE OF A SBAS NAVIGATION RINEX FILE                     COMMENT             
THIS FILE IS PART OF THE gLAB TOOL SUITE                    COMMENT             
FILE PREPARED BY: ADRIA ROVIRA GARCIA                       COMMENT             
PLEASE EMAIL ANY COMMENT OR REQUEST TO: glab.gage @ upc.edu COMMENT             
GPSA   0.1676D-07  0.2235D-07  0.1192D-06  0.1192D-06       IONOSPHERIC CORR    
GPSB   0.1208D+06  0.1310D+06 -0.1310D+06 -0.1966D+06       IONOSPHERIC CORR    
SBUT  0.1331791282D-06 0.107469589D-12 552960 1025 EGNOS  5 TIME SYSTEM CORR    
    15    15  1573    64                                    LEAP SECONDS        
                                                            END OF HEADER       
S22 2010 10 18  0  1  4-9.872019290924D-08 5.456968210638D-12 5.186940000000D+05
     2.482832392000D+04-3.593750000000D-04-1.375000000000D-07 0.000000000000D+00
    -3.408920872000D+04-1.480625000000D-03-5.000000000000D-08 4.000000000000D+00
    -1.650560000000D+01 8.360000000000D-04 6.250000000000D-08 2.300000000000D+01
S22 2010 10 18  0  5 20-1.005828380585D-07 6.366462912410D-12 0.000000000000D+00
     2.482822744000D+04-3.962500000000D-04-1.375000000000D-07 0.000000000000D+00
    -3.408958936000D+04-1.492500000000D-03-5.000000000000D-08 4.000000000000D+00
    -1.628960000000D+01 8.520000000000D-04 6.250000000000D-08 2.400000000000D+01
